#dP2022  1 29  0  0  0.00000000      96 __u+U ITR00 FIT  IAC
## 2194 518400.00000000   900.00000000 59608 0.0000000000000
+  125   C01C02C03C04C05C06C07C08C09C10C11C12C13C14C16C19C20
+        C21C22C23C24C25C26C27C28C29C30C32C33C34C35C36C37C38
+        C39C40C41C42C43C44C45C46C60E01E02E03E04E05E07E08E09
+        E11E12E13E14E15E18E19E21E24E25E26E27E30E31E33E36G01
+        G02G03G04G05G06G07G08G09G10G11G12G13G14G15G16G17G18
+        G19G20G21G22G23G24G25G26G27G28G29G30G31G32J01J02J03
+        R01R02R03R04R05R06R07R08R09R10R11R12R13R14R15R17R18
+        R19R20R21R22R23R24  0  0  0  0  0  0  0  0  0  0  0
++        15 14 15 15 17  9  9  9  8  9  9  8  8 11  9  6  7
++         7  7  7  7  7  7  7  7  7  7  7  7  7  7  7  7  8
++         8  8  8  7  7  7  7  7 17  4  4  4  5  4  4  4  5
++         4  4  4  4  4  4  4  4  4  4  4  5  4  4  4  4  3
++         4  4  4  4  4  4  4  4  4  4  4  4  4  4  4  3  4
++         4  4  4  4  4  3  4  4  4  4  4  4  4  3  9  8  8
++         7  6  6  5  5 13  6  6  6 13  8  7  7  6  6  6  6
++         7  7  6  7 13  6  0  0  0  0  0  0  0  0  0  0  0
%c M  cc GPS ccc cccc cccc cccc cccc ccccc ccccc ccccc ccccc
%c cc cc ccc ccc cccc cccc cccc cccc ccccc ccccc ccccc ccccc
%f  0.0000000  0.000000000  0.00000000000  0.000000000000000
%f  0.0000000  0.000000000  0.00000000000  0.000000000000000
%i    0    0    0    0      0      0      0      0         0
%i    0    0    0    0      0      0      0      0         0
/* INFORMATION & ANALYSIS CENTER (IAC)            RAPID DATA
/* S/V CLOCKS ARE ALIGNED TO GNSS TIME                      
/* G:C1WC2W R:C1PC2P E:C1XC5X C:C2IC6I J:C1CC2S             
/* PCV:IGS14_2194 OL/AL:FES2004  NONE     YN ORB:CoN CLK:CoN
*  2022 01 29  0  0  0.00000000
PC01 -34360.639657  24414.583683   -179.237258   -187.553049
PC02   4436.678340  41965.971780    970.552248    666.972279
PC03 -14818.074467  39511.474276    185.888570    683.827792
PC04 -39632.313099  14363.970410   -570.319508   -315.517232
PC05  21812.701465  36092.411231   1384.864969   -500.999545
PC06  -1403.188531  30577.987807  29067.950882    -43.831269
PC07 -15887.233929  28159.804384 -27111.372886     14.683479
PC08 -12456.023595  40187.566815    373.131823     94.312098
PC09   5928.933484  34859.824073  23634.865879   -474.906705
PC10  -8610.529209  28349.900048 -29876.731659    139.793063
PC11 -20813.170680  -7477.526075 -16966.388803   -242.010571
PC12 -18682.891752 -20709.710650  -1023.232664   -435.375163
PC13  -7367.284567  40826.924496   6817.173479   -133.009226
PC14 -27310.848946   1749.718774  -5574.402256    462.032233
PC16  -3051.663479  29023.991034  30654.898042     68.419763
PC19  26384.952729  -8200.875941  -3845.141477    904.212452
PC20  24545.809374   3817.842371  12707.061279   -812.492529
PC21  -7850.366008 -14288.108221 -22633.750788   -967.623850
PC22  12990.467092 -15934.816773 -18858.969691   -958.322966
PC23 -10720.124202  25618.236343   2682.866100   -973.198194
PC24 -13918.354510  -9090.822043  22400.985864   -944.139649
PC25 -17244.537325  13195.681179  17504.548656   -787.559801
PC26  -3549.505141 -23575.352163  14521.532965    786.947295
PC27  13148.720510  23401.842206  -7682.065191    668.721367
PC28  -2883.459391  18534.212806 -20656.502984     26.297018
PC29  17402.678628  -3253.735767  21568.073813    507.705041
PC30  22093.922464  14359.365856   9223.903105    492.184411
PC32   7879.126334  14281.402441  22658.089896   -960.834660
PC33 -26367.701597   8333.479335   3798.555244   -955.173560
PC34 -22161.867347 -13622.990082 -10071.734562   -481.386101
PC35   2963.851264 -18222.395803  20910.591622    114.404362
PC36  17599.107762 -12343.398407 -17783.727257   -883.020474
PC37   2236.038041  24180.016964 -13717.009047   -956.123486
PC38 -15411.588499  38716.333422  -5845.519699    207.504749
PC39  -6598.087505  25700.546948  32803.425842     34.724639
PC40      0.000000      0.000000      0.000000    239.672335
PC41 -13344.360821  15967.388559  18640.632248   -928.994286
PC42 -24071.640039  -4396.235801 -13383.321616   -929.442926
PC43 -17847.440835   2663.328896 -21284.285949   -945.129912
PC44 -13764.834755 -22955.171539   7823.284572    546.853185
PC45  10564.526793 -25727.062034  -2484.646260    666.060275
PC46  14464.262039   7488.445270 -22660.630982   -139.297241
PC60   7322.025417  41515.449510  -1077.933577     -0.264892
PE01 -18071.154994  -4601.583440  22982.096955   -568.474602
PE02  18202.542216   4431.574868 -22928.454642    276.651237
PE03  27262.596964  11003.371693   3403.838655   -521.969103
PE04 -25795.477049   2529.799131  14293.988939   -952.777105
PE05  12731.714767  18332.329097  19442.616888   -214.251385
PE07   9012.157358 -14886.830529 -23942.140640   -633.310131
PE08  25542.754434  -2852.943178 -14680.389031   5864.449918
PE09  -8685.784642  14875.934680  24071.566148   5379.168999
PE11  -4555.924086  24862.024921 -15419.208750   4577.150083
PE12 -15081.238660   6190.906496 -24701.138304   4786.901251
PE13   4881.194388 -24442.138180  15970.835526    426.064334
PE14   9920.094837 -11608.046479  18069.566633  -1726.452686
PE15  15049.616134  -6030.201988  24776.618309    766.571527
PE18 -16815.675918  13428.895653 -24144.319108  -1857.484843
PE19 -26243.219215 -12414.809986  -5752.540821    489.103907
PE21  -2139.705487 -18920.295278  22663.048673   -713.955807
PE24 -16845.612177  22899.438765  -8201.148638  -1360.567116
PE25   1918.880585  19041.473819 -22574.664004   -561.806257
PE26  -8612.630498 -28142.303349  -3158.697078   -741.697708
PE27  15909.022528 -23179.334582   9294.248452   -219.953268
PE30  24596.244776 -12798.433559 -10410.553268   -229.584223
PE31 -24444.913128  13754.188543   9441.583067   -491.403898
PE33 -16297.837015 -15859.616120 -18932.390302   -459.948730
PE36   8109.086760  28389.768514   2187.589036   -324.585294
PG01  13265.724229  -8742.503085  20935.380316    445.392990
PG02 -14028.979353 -14290.073945 -16724.914157   -649.736060
PG03  22949.065202 -12634.007080   3918.892244    -97.319342
PG04  20158.498361  -3026.634890 -17067.166454   -192.636275
PG05 -20488.013557    395.148144 -17139.685349    -69.509550
PG06  -5588.302343 -25339.755575  -5417.950400    184.634519
PG07   6268.107500 -22814.029347 -11177.745142    305.918879
PG08  24960.105744   4977.797230   8171.942777    -53.991163
PG09  10108.032662 -12115.345018 -21440.466092   -356.333062
PG10  -3675.445689  18285.036900  18931.985310   -305.610994
PG11 -12353.216647 -16149.631876 -17100.628871    -89.815488
PG12 -23960.322032   9356.107873   6061.648063   -162.762714
PG13 -23048.063487 -13172.336042   2159.462492    252.774998
PG14   5030.431323 -18550.761494  18297.740514    -76.961125
PG15 -25289.318425  -2031.936161   7985.547426    -88.021309
PG16  18373.069978   4588.853397 -19073.321971   -462.115465
PG17  -4742.348477 -17663.992952  19681.325818    567.703600
PG18  -6298.707642  23155.613060 -11273.613081    251.614570
PG19 -12874.024663 -18658.267085  13726.939742    111.684063
PG20 -13778.698926  -8158.427434 -21165.380930    516.959488
PG21  15911.291487   2095.863162  21913.366088    157.047638
PG22  15402.968319  18467.237573  11873.526619    205.422249
PG23 -14288.413637  19610.374947  10682.030595      6.580123
PG24 -15114.198889   4299.085608  21098.865505    276.563084
PG25 -19107.085229  17621.331900  -4949.709667    277.652659
PG26   7908.578352  13687.711043 -21404.159736    178.484511
PG27  23423.093612  12794.569864  -2339.979174     93.383221
PG28  -2939.633023 -15555.724612  21881.605426    412.282850
PG29 -13457.745426   8674.741556 -21246.984513   -473.263621
PG30    348.616729 -26278.673308  -2705.762769   -509.863923
PG31   7078.625772  24091.856758  -8007.602721   -162.141650
PG32   9940.162220  17892.345560  17153.686703    -58.179335
PJ01 -31605.188527  21447.307849  22889.949777    273.996597
PJ02 -35234.969358  23218.831246   5670.222568     -1.023911
PJ03 -20458.193941  21728.587751 -25141.136988     -0.314592
PR01  -7828.231367 -10262.524373 -22002.609104      7.094277
PR02 -23687.816588  -3771.052806  -8542.168361    507.961125
PR03 -23426.964460   4639.566460   8922.239781     50.664271
PR04 -10127.386907  10035.442231  21174.486229    125.478717
PR05   8773.571359  10063.621955  21750.443740     86.765620
PR06  24222.780418   2625.557444   7586.815076 999999.999999
PR07  23202.922273  -4857.664882  -9447.747962     31.121759
PR08  10065.177556 -10151.187343 -21078.542967    -63.310759
PR09  11377.255094   2464.118305 -22678.687109     36.548946
PR10  15466.249333 -13457.696119 -15243.981488 999999.999999
PR11  11178.303201 -22849.418264   1850.167715     46.496055
PR12    -19.447813 -18006.146135  18099.216313     17.036084
PR13 -10620.273606  -3422.874664  22916.720683    -17.609729
PR14 -15612.568454  14388.144062  14151.416456     73.738232
PR15 -11128.559455  22804.946371  -2561.385683     98.588734
PR17 -11020.754234   1838.085781 -22919.959030    496.737968
PR18   -346.108520  16603.085318 -19362.962989    105.404104
PR19   9225.288418  22835.356194  -6637.076113   -176.138543
PR20  15270.451160  15549.318933  13307.031776    -63.892184
PR21  10207.134617  -3206.191155  23160.004927   -273.713478
PR22   -136.663577 -17086.198848  18889.665496   -161.114636
PR23 -12581.632976 -22180.592484    492.121834 999999.999999
PR24 -15829.326629 -14544.617041 -13717.462445     77.726448
EOF
